ONEWEB-0412             
1 50489U 21132W   24036.31246553  .00000152  00000+0  35375-3 0  9992
2 50489  87.9248 147.1794 0002159 114.4868 245.6490 13.18684977109215
ONEWEB-0413             
1 50490U 21132X   24036.31723977  .00001635  00000+0  41135-2 0  9991
2 50490  87.9248 147.1919 0002362 107.9665 252.1725 13.18685410109165
ONEWEB-0414             
1 50491U 21132Y   24036.53061978  .00000073  00000+0  15333-3 0  9999
2 50491  87.9243 147.1339 0001870 118.1710 241.9611 13.18686625109221
ONEWEB-0417             
1 50492U 21132Z   24036.38675891  .00000111  00000+0  24779-3 0  9995
2 50492  87.9250 147.1557 0001351 110.9837 249.1439 13.18688684109186
ONEWEB-0418             
1 50493U 21132AA  24035.86906821 -.00000022  00000+0 -88361-4 0  9999
2 50493  87.9245 147.2681 0001228 121.1570 238.9683 13.18687551107885
ONEWEB-0419             
1 50494U 21132AB  24036.33776699  .00000108  00000+0  24049-3 0  9996
2 50494  87.9241 147.1955 0001301 102.4445 257.6832 13.18686312109150
ONEWEB-0420             
1 50495U 21132AC  24036.53219237  .00000098  00000+0  21682-3 0  9997
2 50495  87.9242 147.1654 0002111 103.9538 256.1829 13.18684708109187
ONEWEB-0421             
1 50496U 21132AD  24036.52588114  .00000141  00000+0  32527-3 0  9999
2 50496  87.9251 147.1223 0002075 119.2828 240.8512 13.18687244109223
